CCSDS_OEM_VERS = 1.0
CREATION_DATE  = 2017-05-11T11:33:03
ORIGINATOR     = GMAT USER

META_START
OBJECT_NAME          = MOPSSat_alt_35785_km_RAAN_180_039
OBJECT_ID            = SatId
CENTER_NAME          = Earth
REF_FRAME            = EME2000
TIME_SYSTEM          = UTC
START_TIME           = 2017-01-01T00:00:00.000
USEABLE_START_TIME   = 2017-01-01T00:00:00.000
USEABLE_STOP_TIME    = 2017-01-02T00:00:00.000
STOP_TIME            = 2017-01-02T00:00:00.000
INTERPOLATION        = Lagrange
INTERPOLATION_DEGREE = 7 
META_STOP


                                                                                   

2017-01-01T07:47:30.000   1.927362566349738e+04  -3.692774698977968e+04   6.510617223500408e+03   2.734806296554387e+00   1.384389308636753e+00  -2.442024027993204e-01
2017-01-01T07:47:40.000   1.930096859795725e+04  -3.691389327750741e+04   6.508173467842147e+03   2.733780459677374e+00   1.386353077204155e+00  -2.445487167500404e-01
2017-01-01T07:47:50.000   1.932830126680418e+04  -3.690001993122132e+04   6.505726249692071e+03   2.732753168639461e+00   1.388316108429707e+00  -2.448949006370492e-01
2017-01-01T07:48:00.000   1.935562365571451e+04  -3.688612695819041e+04   6.503275570332413e+03   2.731724423978937e+00   1.390278401284373e+00  -2.452409542788243e-01
2017-01-01T07:48:10.000   1.938293575043939e+04  -3.687221436565884e+04   6.500821431040998e+03   2.730694226232241e+00   1.392239954744491e+00  -2.455868774947914e-01
2017-01-01T07:48:20.000   1.941023753616619e+04  -3.685828216117086e+04   6.498363833148595e+03   2.729662575958039e+00   1.394200767745910e+00  -2.459326700972350e-01
2017-01-01T07:48:30.000   1.943752899815724e+04  -3.684433035224591e+04   6.495902777981611e+03   2.728629473713159e+00   1.396160839229862e+00  -2.462783318993894e-01
2017-01-01T07:48:40.000   1.946481012158481e+04  -3.683035894646231e+04   6.493438266876815e+03   2.727594920058793e+00   1.398120168131113e+00  -2.466238627133487e-01
2017-01-01T07:48:50.000   1.949208089196802e+04  -3.681636795123639e+04   6.490970301142414e+03   2.726558915544131e+00   1.400078753409335e+00  -2.469692623555990e-01
2017-01-01T07:49:00.000   1.951934129481210e+04  -3.680235737400430e+04   6.488498882090124e+03   2.725521460719844e+00   1.402036594023207e+00  -2.473145306424512e-01
2017-01-01T07:49:10.000   1.954659131569162e+04  -3.678832722218028e+04   6.486024011027773e+03   2.724482556134971e+00   1.403993688936386e+00  -2.476596673910946e-01
2017-01-01T07:49:20.000   1.957383094021769e+04  -3.677427750317165e+04   6.483545689261981e+03   2.723442202338041e+00   1.405950037115153e+00  -2.480046724191809e-01
2017-01-01T07:49:30.000   1.960106015402327e+04  -3.676020822438784e+04   6.481063918099732e+03   2.722400399877742e+00   1.407905637527363e+00  -2.483495455446388e-01
2017-01-01T07:49:40.000   1.962827894273062e+04  -3.674611939325711e+04   6.478578698851346e+03   2.721357149304156e+00   1.409860489140095e+00  -2.486942865852614e-01
2017-01-01T07:49:50.000   1.965548729193542e+04  -3.673201101723337e+04   6.476090032831657e+03   2.720312451169268e+00   1.411814590918526e+00  -2.490388953585052e-01
2017-01-01T07:50:00.000   1.968268518717554e+04  -3.671788310381421e+04   6.473597921363200e+03   2.719266306028294e+00   1.413767941823675e+00  -2.493833716810944e-01
2017-01-01T07:50:10.000   1.970987261401328e+04  -3.670373566049727e+04   6.471102365768530e+03   2.718218714436456e+00   1.415720540818321e+00  -2.497277153700631e-01
2017-01-01T07:50:20.000   1.973704955767829e+04  -3.668956869496868e+04   6.468603367403444e+03   2.717169676962933e+00   1.417672386841350e+00  -2.500719262382316e-01
2017-01-01T07:50:30.000   1.976421600350056e+04  -3.667538221487525e+04   6.466100927616803e+03   2.716119194173995e+00   1.419623478838856e+00  -2.504160040996918e-01
2017-01-01T07:50:40.000   1.979137193674934e+04  -3.666117622790888e+04   6.463595047765431e+03   2.715067266639254e+00   1.421573815752565e+00  -2.507599487677654e-01
2017-01-01T07:50:50.000   1.981851734325784e+04  -3.664695074148011e+04   6.461085729156512e+03   2.714013894907484e+00   1.423523396564718e+00  -2.511037600629183e-01
2017-01-01T07:51:00.000   1.984565220880007e+04  -3.663270576304362e+04   6.458572973105010e+03   2.712959079530727e+00   1.425472220253291e+00  -2.514474378048651e-01
2017-01-01T07:51:10.000   1.987277651923212e+04  -3.661844130002480e+04   6.456056780920736e+03   2.711902821058862e+00   1.427420285802165e+00  -2.517909818143610e-01
2017-01-01T07:51:20.000   1.989989026013957e+04  -3.660415736000182e+04   6.453537153940447e+03   2.710845120053081e+00   1.429367592175788e+00  -2.521343919087345e-01
2017-01-01T07:51:30.000   1.992699341709962e+04  -3.658985395057122e+04   6.451014093504134e+03   2.709785977075934e+00   1.431314138338010e+00  -2.524776679052090e-01
2017-01-01T07:51:40.000   1.995408597568071e+04  -3.657553107934685e+04   6.448487600954847e+03   2.708725392691253e+00   1.433259923252048e+00  -2.528208096208959e-01
2017-01-01T07:51:50.000   1.998116792118332e+04  -3.656118875410011e+04   6.445957677663437e+03   2.707663367474543e+00   1.435204945861877e+00  -2.531638168695129e-01
2017-01-01T07:52:00.000   2.000823923898950e+04  -3.654682698257206e+04   6.443424324995377e+03   2.706599901999058e+00   1.437149205117330e+00  -2.535066894658119e-01
2017-01-01T07:52:10.000   2.003529991442510e+04  -3.653244577254714e+04   6.440887544323819e+03   2.705534996841265e+00   1.439092699964203e+00  -2.538494272238314e-01
2017-01-01T07:52:20.000   2.006234993337042e+04  -3.651804513152868e+04   6.438347336972310e+03   2.704468652556818e+00   1.441035429388113e+00  -2.541920299646335e-01
2017-01-01T07:52:30.000   2.008938928164939e+04  -3.650362506706316e+04   6.435803704272019e+03   2.703400869704567e+00   1.442977392370631e+00  -2.545344975085664e-01
2017-01-01T07:52:40.000   2.011641794516796e+04  -3.648918558666726e+04   6.433256647548858e+03   2.702331648841156e+00   1.444918587899213e+00  -2.548768296770164e-01
2017-01-01T07:52:50.000   2.014343590956247e+04  -3.647472669801223e+04   6.430706168155987e+03   2.701260990534670e+00   1.446859014941957e+00  -2.552190262879555e-01
2017-01-01T07:53:00.000   2.017044316046111e+04  -3.646024840878761e+04   6.428152267449832e+03   2.700188895354561e+00   1.448798672466376e+00  -2.555610871592526e-01
2017-01-01T07:53:10.000   2.019743968348336e+04  -3.644575072670048e+04   6.425594946789867e+03   2.699115363871565e+00   1.450737559439353e+00  -2.559030121086663e-01
2017-01-01T07:53:20.000   2.022442546398178e+04  -3.643123365961709e+04   6.423034207563670e+03   2.698040396668220e+00   1.452675674808606e+00  -2.562448009505744e-01
2017-01-01T07:53:30.000   2.025140048739038e+04  -3.641669721537285e+04   6.420470051153375e+03   2.696963994324773e+00   1.454613017527699e+00  -2.565864535003862e-01
2017-01-01T07:53:40.000   2.027836473908458e+04  -3.640214140184832e+04   6.417902478949075e+03   2.695886157424817e+00   1.456549586545990e+00  -2.569279695727694e-01
2017-01-01T07:53:50.000   2.030531820499992e+04  -3.638756622663525e+04   6.415331492289930e+03   2.694806886530557e+00   1.458485380853066e+00  -2.572693489894855e-01
2017-01-01T07:54:00.000   2.033226087101175e+04  -3.637297169737121e+04   6.412757092523162e+03   2.693726182207595e+00   1.460420399434188e+00  -2.576105915715342e-01
2017-01-01T07:54:10.000   2.035919272309544e+04  -3.635835782165334e+04   6.410179280988878e+03   2.692644045018539e+00   1.462354641281805e+00  -2.579516971411813e-01
2017-01-01T07:54:20.000   2.038611374689515e+04  -3.634372460726958e+04   6.407598059060840e+03   2.691560475540126e+00   1.464288105364574e+00  -2.582926655164985e-01
2017-01-01T07:54:30.000   2.041302392807990e+04  -3.632907206200822e+04   6.405013428112865e+03   2.690475474349122e+00   1.466220790652942e+00  -2.586334965158720e-01
2017-01-01T07:54:40.000   2.043992325226408e+04  -3.631440019370030e+04   6.402425389526316e+03   2.689389042025456e+00   1.468152696113428e+00  -2.589741899569959e-01
2017-01-01T07:54:50.000   2.046681170502975e+04  -3.629970901020939e+04   6.399833944688290e+03   2.688301179151465e+00   1.470083820710232e+00  -2.593147456571549e-01
2017-01-01T07:55:00.000   2.049368927195276e+04  -3.628499851941570e+04   6.397239094988827e+03   2.687211886310724e+00   1.472014163407110e+00  -2.596551634335560e-01
2017-01-01T07:55:10.000   2.052055593861260e+04  -3.627026872921103e+04   6.394640841819999e+03   2.686121164087666e+00   1.473943723168077e+00  -2.599954431034510e-01
2017-01-01T07:55:20.000   2.054741169068879e+04  -3.625551964744666e+04   6.392039186566742e+03   2.685029013063720e+00   1.475872498964331e+00  -2.603355844853594e-01
2017-01-01T07:55:30.000   2.057425651389640e+04  -3.624075128196766e+04   6.389434130612894e+03   2.683935433819861e+00   1.477800489769626e+00  -2.606755873982511e-01
2017-01-01T07:55:40.000   2.060109039398617e+04  -3.622596364061312e+04   6.386825675341235e+03   2.682840426936618e+00   1.479727694560276e+00  -2.610154516615470e-01
2017-01-01T07:55:50.000   2.062791331680802e+04  -3.621115673118010e+04   6.384213822127131e+03   2.681743992991412e+00   1.481654112319721e+00  -2.613551770959257e-01
2017-01-01T07:56:00.000   2.065472526821551e+04  -3.619633056147706e+04   6.381598572347965e+03   2.680646132562505e+00   1.483579742031660e+00  -2.616947635221102e-01
2017-01-01T07:56:10.000   2.068152623405616e+04  -3.618148513932938e+04   6.378979927384095e+03   2.679546846229417e+00   1.485504582679358e+00  -2.620342107607481e-01
2017-01-01T07:56:20.000   2.070831620014412e+04  -3.616662047259288e+04   6.376357888621264e+03   2.678446134573921e+00   1.487428633243687e+00  -2.623735186320644e-01
2017-01-01T07:56:30.000   2.073509515223962e+04  -3.615173656916727e+04   6.373732457452935e+03   2.677343998181038e+00   1.489351892701642e+00  -2.627126869556006e-01
